start=new Date('2023-03-28T00:00:00.000Z').valueOf();
sats=[{"OBJECT_NAME":"STARLINK-5617","GP_ID":"228995889","EPHEMERIS_TYPE":"0","MEAN_ELEMENT_THEORY":"SGP4","TLE_LINE2":"2 55753  70.0011  87.3264 0003387 266.5704 139.3829 15.64013036  1305","DECAY_DATE":null,"TLE_LINE1":"1 55753U 23028N   23086.91667824 -.00894440  00000-0 -10344-1 0  9996","REF_FRAME":"TEME","OBJECT_TYPE":"PAYLOAD","OBJECT_ID":"2023-028N","BSTAR":"-0.01034400000000","APOAPSIS":"378.368","PERIOD":"92.071","ECCENTRICITY":"0.00033870","ELEMENT_SET_NO":"999","COUNTRY_CODE":"US","MEAN_ANOMALY":"139.3829","ARG_OF_PERICENTER":"266.5704","MEAN_MOTION_DOT":"-0.00894440","SITE":"AFWTR","RA_OF_ASC_NODE":"87.3264","SEMIMAJOR_AXIS":"6754.216","CENTER_NAME":"EARTH","RCS_SIZE":"LARGE","INCLINATION":"70.0011","REV_AT_EPOCH":"130","EPOCH":"2023-03-27T22:00:00.999936","PERIAPSIS":"373.793","CLASSIFICATION_TYPE":"U","MEAN_MOTION_DDOT":"0.0000000000000","MEAN_MOTION":"15.64013036","LAUNCH_DATE":"2023-03-03","FILE":"3872915","NORAD_CAT_ID":"55753","TIME_SYSTEM":"UTC"},{"MEAN_ELEMENT_THEORY":"SGP4","EPHEMERIS_TYPE":"0","OBJECT_NAME":"STARLINK-5612","GP_ID":"228996639","DECAY_DATE":null,"TLE_LINE2":"2 55754  70.0012  87.3224 0003632 267.4204 142.1813 15.64074270  1303","OBJECT_TYPE":"PAYLOAD","BSTAR":"-0.01030000000000","OBJECT_ID":"2023-028P","REF_FRAME":"TEME","TLE_LINE1":"1 55754U 23028P   23086.91667824 -.00893026  00000-0 -10300-1 0  9998","PERIOD":"92.067","APOAPSIS":"378.358","MEAN_MOTION_DOT":"-0.00893026","ARG_OF_PERICENTER":"267.4204","MEAN_ANOMALY":"142.1813","COUNTRY_CODE":"US","ELEMENT_SET_NO":"999","ECCENTRICITY":"0.00036320","RCS_SIZE":"LARGE","INCLINATION":"70.0012","CENTER_NAME":"EARTH","SEMIMAJOR_AXIS":"6754.039","RA_OF_ASC_NODE":"87.3224","SITE":"AFWTR","MEAN_MOTION_DDOT":"0.0000000000000","CLASSIFICATION_TYPE":"U","EPOCH":"2023-03-27T22:00:00.999936","PERIAPSIS":"373.451","REV_AT_EPOCH":"130","NORAD_CAT_ID":"55754","TIME_SYSTEM":"UTC","FILE":"3872915","LAUNCH_DATE":"2023-03-03","MEAN_MOTION":"15.64074270"},{"MEAN_MOTION_DOT":"-0.00255741","ARG_OF_PERICENTER":"267.8813","COUNTRY_CODE":"US","MEAN_ANOMALY":"171.9609","ECCENTRICITY":"0.00035180","ELEMENT_SET_NO":"999","CENTER_NAME":"EARTH","INCLINATION":"70.0013","RCS_SIZE":"LARGE","SEMIMAJOR_AXIS":"6737.008","SITE":"AFWTR","RA_OF_ASC_NODE":"87.2864","MEAN_MOTION_DDOT":"0.0000000000000","CLASSIFICATION_TYPE":"U","EPOCH":"2023-03-27T22:00:00.999936","PERIAPSIS":"356.503","REV_AT_EPOCH":"130","TIME_SYSTEM":"UTC","NORAD_CAT_ID":"55755","FILE":"3872915","MEAN_MOTION":"15.70009222","LAUNCH_DATE":"2023-03-03","MEAN_ELEMENT_THEORY":"SGP4","OBJECT_NAME":"STARLINK-5619","GP_ID":"228994888","EPHEMERIS_TYPE":"0","DECAY_DATE":null,"TLE_LINE2":"2 55755  70.0013  87.2864 0003518 267.8813 171.9609 15.70009222  1302","REF_FRAME":"TEME","BSTAR":"-0.00218260000000","OBJECT_TYPE":"PAYLOAD","OBJECT_ID":"2023-028Q","TLE_LINE1":"1 55755U 23028Q   23086.91667824 -.00255741  00000-0 -21826-2 0  9991","APOAPSIS":"361.243","PERIOD":"91.719"},{"TLE_LINE1":"1 55756U 23028R   23086.91667824 -.00888392  00000-0 -10210-1 0  9990","REF_FRAME":"TEME","BSTAR":"-0.01021000000000","OBJECT_TYPE":"PAYLOAD","OBJECT_ID":"2023-028R","APOAPSIS":"378.075","PERIOD":"92.063","GP_ID":"228995138","OBJECT_NAME":"STARLINK-5614","EPHEMERIS_TYPE":"0","MEAN_ELEMENT_THEORY":"SGP4","TLE_LINE2":"2 55756  70.0013  87.3172 0003550 268.1079 145.9419 15.64153103  1301","DECAY_DATE":null,"REV_AT_EPOCH":"130","EPOCH":"2023-03-27T22:00:00.999936","PERIAPSIS":"373.280","CLASSIFICATION_TYPE":"U","MEAN_MOTION_DDOT":"0.0000000000000","MEAN_MOTION":"15.64153103","LAUNCH_DATE":"2023-03-03","FILE":"3872915","NORAD_CAT_ID":"55756","TIME_SYSTEM":"UTC","ECCENTRICITY":"0.00035500","ELEMENT_SET_NO":"999","COUNTRY_CODE":"US","MEAN_ANOMALY":"145.9419","ARG_OF_PERICENTER":"268.1079","MEAN_MOTION_DOT":"-0.00888392","SITE":"AFWTR","RA_OF_ASC_NODE":"87.3172","SEMIMAJOR_AXIS":"6753.813","CENTER_NAME":"EARTH","RCS_SIZE":"LARGE","INCLINATION":"70.0013"},{"EPOCH":"2023-03-27T22:00:00.999936","PERIAPSIS":"373.318","REV_AT_EPOCH":"130","MEAN_MOTION_DDOT":"0.0000000000000","CLASSIFICATION_TYPE":"U","LAUNCH_DATE":"2023-03-03","MEAN_MOTION":"15.64047072","TIME_SYSTEM":"UTC","NORAD_CAT_ID":"55757","FILE":"3872915","MEAN_ANOMALY":"142.1414","COUNTRY_CODE":"US","ELEMENT_SET_NO":"999","ECCENTRICITY":"0.00039450","MEAN_MOTION_DOT":"-0.00879560","ARG_OF_PERICENTER":"266.6506","SEMIMAJOR_AXIS":"6754.118","RA_OF_ASC_NODE":"87.3234","SITE":"AFWTR","INCLINATION":"70.0013","RCS_SIZE":"LARGE","CENTER_NAME":"EARTH","TLE_LINE1":"1 55757U 23028S   23086.91667824 -.00879560  00000-0 -10140-1 0  9990","BSTAR":"-0.01014000000000","OBJECT_TYPE":"PAYLOAD","OBJECT_ID":"2023-028S","REF_FRAME":"TEME","PERIOD":"92.069","APOAPSIS":"378.647","EPHEMERIS_TYPE":"0","GP_ID":"228996389","OBJECT_NAME":"STARLINK-5544","MEAN_ELEMENT_THEORY":"SGP4","DECAY_DATE":null,"TLE_LINE2":"2 55757  70.0013  87.3234 0003945 266.6506 142.1414 15.64047072  1308"},{"SEMIMAJOR_AXIS":"6754.036","RA_OF_ASC_NODE":"87.3209","SITE":"AFWTR","RCS_SIZE":"LARGE","INCLINATION":"70.0013","CENTER_NAME":"EARTH","MEAN_ANOMALY":"142.3910","COUNTRY_CODE":"US","ELEMENT_SET_NO":"999","ECCENTRICITY":"0.00036180","MEAN_MOTION_DOT":"-0.00891790","ARG_OF_PERICENTER":"268.4294","LAUNCH_DATE":"2023-03-03","MEAN_MOTION":"15.64075463","NORAD_CAT_ID":"55758","TIME_SYSTEM":"UTC","FILE":"3872915","PERIAPSIS":"373.457","EPOCH":"2023-03-27T22:00:00.999936","REV_AT_EPOCH":"130","MEAN_MOTION_DDOT":"0.0000000000000","CLASSIFICATION_TYPE":"U","DECAY_DATE":null,"TLE_LINE2":"2 55758  70.0013  87.3209 0003618 268.4294 142.3910 15.64075463  1300","EPHEMERIS_TYPE":"0","OBJECT_NAME":"STARLINK-5072","GP_ID":"228996140","MEAN_ELEMENT_THEORY":"SGP4","APOAPSIS":"378.345","PERIOD":"92.067","TLE_LINE1":"1 55758U 23028T   23086.91667824 -.00891790  00000-0 -10284-1 0  9999","BSTAR":"-0.01028400000000","OBJECT_TYPE":"PAYLOAD","OBJECT_ID":"2023-028T","REF_FRAME":"TEME"},{"ECCENTRICITY":"0.00025810","ELEMENT_SET_NO":"999","COUNTRY_CODE":"US","MEAN_ANOMALY":"169.3117","ARG_OF_PERICENTER":"247.1137","MEAN_MOTION_DOT":"0.00243482","SITE":"AFWTR","RA_OF_ASC_NODE":"86.8813","SEMIMAJOR_AXIS":"6702.095","CENTER_NAME":"EARTH","INCLINATION":"69.9918","RCS_SIZE":"LARGE","REV_AT_EPOCH":"130","EPOCH":"2023-03-27T22:00:00.999936","PERIAPSIS":"322.230","CLASSIFICATION_TYPE":"U","MEAN_MOTION_DDOT":"0.0000000000000","MEAN_MOTION":"15.82293068","LAUNCH_DATE":"2023-03-03","FILE":"3872915","TIME_SYSTEM":"UTC","NORAD_CAT_ID":"55759","OBJECT_NAME":"STARLINK-5081","GP_ID":"228995388","EPHEMERIS_TYPE":"0","MEAN_ELEMENT_THEORY":"SGP4","TLE_LINE2":"2 55759  69.9918  86.8813 0002581 247.1137 169.3117 15.82293068  1306","DECAY_DATE":null,"TLE_LINE1":"1 55759U 23028U   23086.91667824  .00243482  00000-0  11464-2 0  9999","REF_FRAME":"TEME","OBJECT_TYPE":"PAYLOAD","OBJECT_ID":"2023-028U","BSTAR":"0.00114640000000","PERIOD":"91.007","APOAPSIS":"325.689"},{"COUNTRY_CODE":"US","MEAN_ANOMALY":"145.6452","ECCENTRICITY":"0.00035940","ELEMENT_SET_NO":"999","MEAN_MOTION_DOT":"-0.00891003","ARG_OF_PERICENTER":"267.5983","SEMIMAJOR_AXIS":"6753.865","SITE":"AFWTR","RA_OF_ASC_NODE":"87.3180","CENTER_NAME":"EARTH","RCS_SIZE":"LARGE","INCLINATION":"70.0012","EPOCH":"2023-03-27T22:00:00.999936","PERIAPSIS":"373.303","REV_AT_EPOCH":"130","MEAN_MOTION_DDOT":"0.0000000000000","CLASSIFICATION_TYPE":"U","MEAN_MOTION":"15.64134888","LAUNCH_DATE":"2023-03-03","TIME_SYSTEM":"UTC","NORAD_CAT_ID":"55760","FILE":"3872915","GP_ID":"228995638","OBJECT_NAME":"STARLINK-5532","EPHEMERIS_TYPE":"0","MEAN_ELEMENT_THEORY":"SGP4","DECAY_DATE":null,"TLE_LINE2":"2 55760  70.0012  87.3180 0003594 267.5983 145.6452 15.64134888  1302","TLE_LINE1":"1 55760U 23028V   23086.91667824 -.00891003  00000-0 -10250-1 0  9992","REF_FRAME":"TEME","BSTAR":"-0.01025000000000","OBJECT_TYPE":"PAYLOAD","OBJECT_ID":"2023-028V","PERIOD":"92.064","APOAPSIS":"378.157"},{"CENTER_NAME":"EARTH","INCLINATION":"70.0016","RCS_SIZE":"LARGE","SITE":"AFWTR","RA_OF_ASC_NODE":"87.2797","SEMIMAJOR_AXIS":"6737.274","ARG_OF_PERICENTER":"265.2600","MEAN_MOTION_DOT":"0.00025434","ECCENTRICITY":"0.00032880","ELEMENT_SET_NO":"999","COUNTRY_CODE":"US","MEAN_ANOMALY":"179.9652","FILE":"3872915","NORAD_CAT_ID":"55761","TIME_SYSTEM":"UTC","MEAN_MOTION":"15.69915984","LAUNCH_DATE":"2023-03-03","CLASSIFICATION_TYPE":"U","MEAN_MOTION_DDOT":"0.0000000000000","REV_AT_EPOCH":"130","PERIAPSIS":"356.924","EPOCH":"2023-03-27T22:00:00.999936","TLE_LINE2":"2 55761  70.0016  87.2797 0003288 265.2600 179.9652 15.69915984  1302","DECAY_DATE":null,"MEAN_ELEMENT_THEORY":"SGP4","OBJECT_NAME":"STARLINK-5611","GP_ID":"228995890","EPHEMERIS_TYPE":"0","APOAPSIS":"361.355","PERIOD":"91.725","REF_FRAME":"TEME","OBJECT_TYPE":"PAYLOAD","BSTAR":"0.00021272000000","OBJECT_ID":"2023-028W","TLE_LINE1":"1 55761U 23028W   23086.91667824  .00025434  00000-0  21272-3 0  9996"},{"OBJECT_TYPE":"PAYLOAD","OBJECT_ID":"2023-028X","BSTAR":"0.00043825000000","REF_FRAME":"TEME","TLE_LINE1":"1 55762U 23028X   23086.91667824  .00052774  00000-0  43825-3 0  9992","PERIOD":"91.725","APOAPSIS":"361.212","MEAN_ELEMENT_THEORY":"SGP4","EPHEMERIS_TYPE":"0","OBJECT_NAME":"STARLINK-5603","GP_ID":"228996640","DECAY_DATE":null,"TLE_LINE2":"2 55762  70.0011  87.2761 0003035 263.6883 183.9148 15.69906362  1309","MEAN_MOTION_DDOT":"0.0000000000000","CLASSIFICATION_TYPE":"U","PERIAPSIS":"357.122","EPOCH":"2023-03-27T22:00:00.999936","REV_AT_EPOCH":"130","NORAD_CAT_ID":"55762","TIME_SYSTEM":"UTC","FILE":"3872915","LAUNCH_DATE":"2023-03-03","MEAN_MOTION":"15.69906362","MEAN_MOTION_DOT":"0.00052774","ARG_OF_PERICENTER":"263.6883","MEAN_ANOMALY":"183.9148","COUNTRY_CODE":"US","ELEMENT_SET_NO":"999","ECCENTRICITY":"0.00030350","INCLINATION":"70.0011","RCS_SIZE":"LARGE","CENTER_NAME":"EARTH","SEMIMAJOR_AXIS":"6737.302","RA_OF_ASC_NODE":"87.2761","SITE":"AFWTR"}];
